*******************************************************************************
Ephemeris / WWW_USER Mon Mar 24 08:34:47 2025 Pasadena, USA      / Horizons    
*******************************************************************************
Target body name: (2018 WD2)                      {source: JPL#7}
Center body name: Earth (399)                     {source: DE441}
Center-site name: Mauna Kea
*******************************************************************************
Start time      : A.D. 2018-Oct-27 04:00:00.0000 UT      
Stop  time      : A.D. 2018-Oct-27 16:11:00.0000 UT      
Step-size       : 1 minutes
*******************************************************************************
Target pole/equ : undefined
Target radii    : undefined                                                    
Center geodetic : 204.5278, 19.8260847, 4.21024   {E-lon(deg),Lat(deg),Alt(km)}
Center cylindric: 204.5278, 6006.35451, 2151.0229 {E-lon(deg),Dxy(km),Dz(km)}
Center pole/equ : ITRF93                          {East-longitude positive}
Center radii    : 6378.137, 6378.137, 6356.752 km {Equator_a, b, pole_c}       
Target primary  : Sun
Vis. interferer : MOON (R_eq= 1737.400) km        {source: DE441}
Rel. light bend : Sun                             {source: DE441}
Rel. lght bnd GM: 1.3271E+11 km^3/s^2                                          
Small-body perts: Yes                             {source: SB441-N16}
Atmos refraction: NO (AIRLESS)
RA format       : HMS
Time format     : CAL 
Calendar mode   : Mixed Julian/Gregorian
RTS-only print  : NO       
EOP file        : eop.250321.p250617                                           
EOP coverage    : DATA-BASED 1962-JAN-20 TO 2025-MAR-21. PREDICTS-> 2025-JUN-16
Units conversion: 1 au= 149597870.700 km, c= 299792.458 km/s, 1 day= 86400.0 s 
Table cut-offs 1: Elevation (-90.0deg=NO ),Airmass (>38.000=NO), Daylight (YES)
Table cut-offs 2: Solar elongation (  0.0,180.0=NO ),Local Hour Angle( 0.0=NO )
Table cut-offs 3: RA/DEC angular rate (     0.0=NO )                           
*******************************************************************************
Initial IAU76/J2000 heliocentric ecliptic osculating elements (au, days, deg.):
  EPOCH=  2458442.5 ! 2018-Nov-20.00 (TDB)         Residual RMS= .32422        
   EC= .524986067713519    QR= .9778174985080528   TP= 2458471.2675125618      
   OM= 251.0855257113189   W=  198.8561547827716   IN= 2.860917524648221       
  Equivalent ICRF heliocentric cartesian coordinates (au, au/d):
   X= 5.933978759455335E-01  Y= 7.796199626272187E-01  Z= 3.534710331364960E-01
  VX=-1.894544763705440E-02 VY= 7.774789113426014E-03 VZ= 2.252803318104249E-03
Asteroid physical parameters (km, seconds, rotational period in hours):        
   GM= n.a.                RAD= n.a.               ROTPER= n.a.                
   H= 26.2                 G= .150                 B-V= n.a.                   
                           ALBEDO= n.a.            STYP= n.a.                  
*******************************************************************************
 Date__(UT)__HR:MN     R.A._________(ICRF)_________DEC
******************************************************
$$SOE
 2018-Oct-27 08:06  m  00 59 20.145316 +19 06 35.23500
 2018-Oct-27 08:07  m  00 59 20.109375 +19 06 35.32345
 2018-Oct-27 08:08  m  00 59 20.073420 +19 06 35.41161
 2018-Oct-27 08:09  m  00 59 20.037451 +19 06 35.49949
 2018-Oct-27 08:10  m  00 59 20.001468 +19 06 35.58709
 2018-Oct-27 08:11  m  00 59 19.965471 +19 06 35.67440
 2018-Oct-27 08:12  m  00 59 19.929461 +19 06 35.76143
 2018-Oct-27 08:13  m  00 59 19.893437 +19 06 35.84817
 2018-Oct-27 08:14  m  00 59 19.857401 +19 06 35.93463
 2018-Oct-27 08:15  m  00 59 19.821353 +19 06 36.02080
 2018-Oct-27 08:16  m  00 59 19.785292 +19 06 36.10669
 2018-Oct-27 08:17  m  00 59 19.749219 +19 06 36.19229
 2018-Oct-27 08:18  m  00 59 19.713134 +19 06 36.27761
 2018-Oct-27 08:19  m  00 59 19.677038 +19 06 36.36264
 2018-Oct-27 08:20  m  00 59 19.640931 +19 06 36.44739
 2018-Oct-27 08:21  m  00 59 19.604813 +19 06 36.53185
 2018-Oct-27 08:22  m  00 59 19.568683 +19 06 36.61602
 2018-Oct-27 08:23  m  00 59 19.532544 +19 06 36.69990
 2018-Oct-27 08:24  m  00 59 19.496394 +19 06 36.78350
 2018-Oct-27 08:25  m  00 59 19.460235 +19 06 36.86681
 2018-Oct-27 08:26  m  00 59 19.424066 +19 06 36.94983
 2018-Oct-27 08:27  m  00 59 19.387887 +19 06 37.03256
 2018-Oct-27 08:28  m  00 59 19.351699 +19 06 37.11501
 2018-Oct-27 08:29  m  00 59 19.315503 +19 06 37.19717
 2018-Oct-27 08:30  m  00 59 19.279298 +19 06 37.27904
 2018-Oct-27 08:31  m  00 59 19.243085 +19 06 37.36062
 2018-Oct-27 08:32  m  00 59 19.206863 +19 06 37.44191
 2018-Oct-27 08:33  m  00 59 19.170634 +19 06 37.52291
 2018-Oct-27 08:34  m  00 59 19.134397 +19 06 37.60363
 2018-Oct-27 08:35  m  00 59 19.098154 +19 06 37.68405
 2018-Oct-27 08:36  m  00 59 19.061903 +19 06 37.76419
 2018-Oct-27 08:37  m  00 59 19.025645 +19 06 37.84403
 2018-Oct-27 08:38  m  00 59 18.989381 +19 06 37.92359
 2018-Oct-27 08:39  m  00 59 18.953111 +19 06 38.00286
 2018-Oct-27 08:40  m  00 59 18.916835 +19 06 38.08183
 2018-Oct-27 08:41  m  00 59 18.880554 +19 06 38.16052
 2018-Oct-27 08:42  m  00 59 18.844267 +19 06 38.23891
 2018-Oct-27 08:43  m  00 59 18.807975 +19 06 38.31702
 2018-Oct-27 08:44  m  00 59 18.771678 +19 06 38.39484
 2018-Oct-27 08:45  m  00 59 18.735377 +19 06 38.47236
 2018-Oct-27 08:46  m  00 59 18.699071 +19 06 38.54959
 2018-Oct-27 08:47  m  00 59 18.662761 +19 06 38.62654
 2018-Oct-27 08:48  m  00 59 18.626448 +19 06 38.70319
 2018-Oct-27 08:49  m  00 59 18.590131 +19 06 38.77955
 2018-Oct-27 08:50  m  00 59 18.553811 +19 06 38.85562
 2018-Oct-27 08:51  m  00 59 18.517489 +19 06 38.93140
 2018-Oct-27 08:52  m  00 59 18.481163 +19 06 39.00689
 2018-Oct-27 08:53  m  00 59 18.444835 +19 06 39.08208
 2018-Oct-27 08:54  m  00 59 18.408505 +19 06 39.15699
 2018-Oct-27 08:55  m  00 59 18.372173 +19 06 39.23160
 2018-Oct-27 08:56  m  00 59 18.335840 +19 06 39.30593
 2018-Oct-27 08:57  m  00 59 18.299505 +19 06 39.37996
 2018-Oct-27 08:58  m  00 59 18.263169 +19 06 39.45370
 2018-Oct-27 08:59  m  00 59 18.226833 +19 06 39.52715
 2018-Oct-27 09:00  t  00 59 18.190496 +19 06 39.60030
 2018-Oct-27 09:01  m  00 59 18.154159 +19 06 39.67317
 2018-Oct-27 09:02  m  00 59 18.117822 +19 06 39.74574
 2018-Oct-27 09:03  m  00 59 18.081485 +19 06 39.81802
 2018-Oct-27 09:04  m  00 59 18.045149 +19 06 39.89002
 2018-Oct-27 09:05  m  00 59 18.008813 +19 06 39.96171
 2018-Oct-27 09:06  m  00 59 17.972479 +19 06 40.03312
 2018-Oct-27 09:07  m  00 59 17.936146 +19 06 40.10424
 2018-Oct-27 09:08  m  00 59 17.899815 +19 06 40.17506
 2018-Oct-27 09:09  m  00 59 17.863486 +19 06 40.24560
 2018-Oct-27 09:10  m  00 59 17.827159 +19 06 40.31584
 2018-Oct-27 09:11  m  00 59 17.790835 +19 06 40.38579
 2018-Oct-27 09:12  m  00 59 17.754513 +19 06 40.45545
 2018-Oct-27 09:13  m  00 59 17.718194 +19 06 40.52482
 2018-Oct-27 09:14  m  00 59 17.681879 +19 06 40.59389
 2018-Oct-27 09:15  m  00 59 17.645567 +19 06 40.66268
 2018-Oct-27 09:16  m  00 59 17.609260 +19 06 40.73117
 2018-Oct-27 09:17  m  00 59 17.572956 +19 06 40.79938
 2018-Oct-27 09:18  m  00 59 17.536656 +19 06 40.86729
 2018-Oct-27 09:19  m  00 59 17.500362 +19 06 40.93491
 2018-Oct-27 09:20  m  00 59 17.464072 +19 06 41.00224
 2018-Oct-27 09:21  m  00 59 17.427787 +19 06 41.06928
 2018-Oct-27 09:22  m  00 59 17.391508 +19 06 41.13603
 2018-Oct-27 09:23  m  00 59 17.355235 +19 06 41.20249
 2018-Oct-27 09:24  m  00 59 17.318967 +19 06 41.26866
 2018-Oct-27 09:25  m  00 59 17.282706 +19 06 41.33454
 2018-Oct-27 09:26  m  00 59 17.246451 +19 06 41.40013
 2018-Oct-27 09:27  m  00 59 17.210204 +19 06 41.46542
 2018-Oct-27 09:28  m  00 59 17.173963 +19 06 41.53043
 2018-Oct-27 09:29  m  00 59 17.137730 +19 06 41.59515
 2018-Oct-27 09:30  m  00 59 17.101504 +19 06 41.65958
 2018-Oct-27 09:31  m  00 59 17.065286 +19 06 41.72372
 2018-Oct-27 09:32  m  00 59 17.029076 +19 06 41.78757
 2018-Oct-27 09:33  m  00 59 16.992875 +19 06 41.85113
 2018-Oct-27 09:34  m  00 59 16.956682 +19 06 41.91440
 2018-Oct-27 09:35  m  00 59 16.920499 +19 06 41.97739
 2018-Oct-27 09:36  m  00 59 16.884325 +19 06 42.04008
 2018-Oct-27 09:37  m  00 59 16.848160 +19 06 42.10249
 2018-Oct-27 09:38  m  00 59 16.812005 +19 06 42.16461
 2018-Oct-27 09:39  m  00 59 16.775859 +19 06 42.22644
 2018-Oct-27 09:40  m  00 59 16.739725 +19 06 42.28798
 2018-Oct-27 09:41  m  00 59 16.703601 +19 06 42.34923
 2018-Oct-27 09:42  m  00 59 16.667487 +19 06 42.41020
 2018-Oct-27 09:43  m  00 59 16.631385 +19 06 42.47088
 2018-Oct-27 09:44  m  00 59 16.595294 +19 06 42.53127
 2018-Oct-27 09:45  m  00 59 16.559215 +19 06 42.59138
 2018-Oct-27 09:46  m  00 59 16.523148 +19 06 42.65120
 2018-Oct-27 09:47  m  00 59 16.487092 +19 06 42.71073
 2018-Oct-27 09:48  m  00 59 16.451050 +19 06 42.76998
 2018-Oct-27 09:49  m  00 59 16.415020 +19 06 42.82894
 2018-Oct-27 09:50  m  00 59 16.379003 +19 06 42.88761
 2018-Oct-27 09:51  m  00 59 16.342999 +19 06 42.94600
 2018-Oct-27 09:52  m  00 59 16.307009 +19 06 43.00411
 2018-Oct-27 09:53  m  00 59 16.271032 +19 06 43.06193
 2018-Oct-27 09:54  m  00 59 16.235069 +19 06 43.11947
 2018-Oct-27 09:55  m  00 59 16.199121 +19 06 43.17672
 2018-Oct-27 09:56  m  00 59 16.163188 +19 06 43.23368
 2018-Oct-27 09:57  m  00 59 16.127269 +19 06 43.29037
 2018-Oct-27 09:58  m  00 59 16.091365 +19 06 43.34677
 2018-Oct-27 09:59  m  00 59 16.055476 +19 06 43.40289
 2018-Oct-27 10:00  m  00 59 16.019604 +19 06 43.45872
 2018-Oct-27 10:01  m  00 59 15.983747 +19 06 43.51427
 2018-Oct-27 10:02  m  00 59 15.947906 +19 06 43.56954
 2018-Oct-27 10:03  m  00 59 15.912081 +19 06 43.62453
 2018-Oct-27 10:04  m  00 59 15.876274 +19 06 43.67924
 2018-Oct-27 10:05  m  00 59 15.840483 +19 06 43.73366
 2018-Oct-27 10:06  m  00 59 15.804709 +19 06 43.78781
 2018-Oct-27 10:07  m  00 59 15.768953 +19 06 43.84167
 2018-Oct-27 10:08  m  00 59 15.733214 +19 06 43.89526
